[{"OBJECT_NAME":"KSM1-D","OBJECT_ID":"2020-081C","EPOCH":"2026-03-09T23:16:47.448768","MEAN_MOTION":15.23167768,"ECCENTRICITY":0.00021749,"INCLINATION":36.897,"RA_OF_ASC_NODE":317.8915,"ARG_OF_PERICENTER":144.8142,"MEAN_ANOMALY":215.275,"EPHEMERIS_TYPE":0,"CLASSIFICATION_TYPE":"U","NORAD_CAT_ID":46907,"ELEMENT_SET_NO":999,"REV_AT_EPOCH":29395,"BSTAR":0.00045744664,"MEAN_MOTION_DOT":0.00010982,"MEAN_MOTION_DDOT":0},{"OBJECT_NAME":"OBJECT C","OBJECT_ID":"2023-104C","EPOCH":"2026-03-09T22:39:44.230752","MEAN_MOTION":15.26846312,"ECCENTRICITY":0.00113074,"INCLINATION":97.273,"RA_OF_ASC_NODE":135.3333,"ARG_OF_PERICENTER":3.876,"MEAN_ANOMALY":356.2565,"EPHEMERIS_TYPE":0,"CLASSIFICATION_TYPE":"U","NORAD_CAT_ID":57426,"ELEMENT_SET_NO":999,"REV_AT_EPOCH":14663,"BSTAR":0.00062618506,"MEAN_MOTION_DOT":0.00016495,"MEAN_MOTION_DDOT":0}]
